     2.100          NAVIGATION                              RINEX VERSION / TYPE
fic2rin                                 10/26/2010 00:37:37 PGM / RUN BY / DATE
                                                            END OF HEADER
15 10 10 25  8  0  0.0 -.191573984921D-03  .477484718431D-11  .000000000000D+00
     .380000000000D+02 -.453125000000D+01  .508521181948D-08 -.202620633535D+01
    -.292435288429D-06  .289223261643D-02  .778585672379D-06  .515383411217D+04
     .115200000000D+06 -.242143869400D-07 -.131134676091D+01 -.596046447754D-07
     .951964653926D+00  .363781250000D+03 -.212132482707D+00 -.856571393922D-08
     .639312344211D-10  .100000000000D+01  .160700000000D+04  .000000000000D+00
     .240000000000D+01  .000000000000D+00 -.977888703346D-08  .380000000000D+02
     .108006000000D+06  .400000000000D+01
16 10 10 25  8  0  0.0 -.120316632092D-03 -.329691829393D-11  .000000000000D+00
     .970000000000D+02 -.796875000000D+01  .417088801994D-08 -.300947792918D+00
    -.460073351860D-06  .584451772738D-02  .995770096779D-05  .515367984581D+04
     .115200000000D+06  .856816768646D-07  .830069170090D+00 -.130385160446D-07
     .973605245584D+00  .196156250000D+03 -.157858884668D+00 -.777318092704D-08
     .484305887570D-09  .100000000000D+01  .160700000000D+04  .000000000000D+00
     .240000000000D+01  .000000000000D+00 -.102445483208D-07  .970000000000D+02
     .108006000000D+06  .400000000000D+01
17 10 10 25  8  0  0.0  .175291206688D-03  .125055521494D-11  .000000000000D+00
     .280000000000D+02 -.796875000000D+01  .490377569051D-08 -.133056757196D+01
    -.432133674622D-06  .566897087265D-02  .512227416039D-05  .515366210747D+04
     .115200000000D+06  .162050127983D-06  .187340576351D+01 -.689178705215D-07
     .960175686874D+00  .283875000000D+03 -.251000980346D+01 -.812926718804D-08
    -.116790579082D-09  .100000000000D+01  .160700000000D+04  .000000000000D+00
     .240000000000D+01  .000000000000D+00 -.102445483208D-07  .280000000000D+02
     .108006000000D+06  .400000000000D+01
18 10 10 25  8  0  0.0  .100819393992D-03  .216004991671D-11  .000000000000D+00
     .112000000000D+03  .128406250000D+03  .500092259421D-08  .797188534102D-02
     .678375363350D-05  .118456581840D-01  .737607479095D-05  .515374337959D+04
     .115200000000D+06  .558793544769D-08 -.232169859223D+01  .238418579102D-06
     .935622976841D+00  .228000000000D+03 -.228643371430D+01 -.848571060676D-08
     .275011455331D-09  .100000000000D+01  .160700000000D+04  .000000000000D+00
     .240000000000D+01  .000000000000D+00 -.107102096081D-07  .112000000000D+03
     .108006000000D+06  .400000000000D+01
19 10 10 25  8  0  0.0 -.772653147578D-04 -.329691829393D-11  .000000000000D+00
     .630000000000D+02 -.128125000000D+02  .494020577940D-08 -.218059786864D+01
    -.640749931335D-06  .672003114596D-02  .531040132046D-05  .515357207298D+04
     .115200000000D+06 -.614672899246D-07  .192806376375D+01 -.540167093277D-07
     .957783701707D+00  .277000000000D+03 -.379726310382D-01 -.815855412224D-08
    -.864321716755D-10  .100000000000D+01  .160700000000D+04  .000000000000D+00
     .240000000000D+01  .000000000000D+00 -.149011611938D-07  .630000000000D+02
     .108006000000D+06  .400000000000D+01
20 10 10 25  8  0  0.0  .499966554344D-04 -.227373675443D-12  .000000000000D+00
     .730000000000D+02  .132375000000D+03  .482877256633D-08  .385415190638D+00
     .665336847305D-05  .430652999785D-02  .846199691296D-05  .515381492043D+04
     .115200000000D+06 -.745058059692D-07 -.237565295521D+01  .931322574615D-08
     .935663877105D+00  .202218750000D+03  .126786775304D+01 -.832856120372D-08
     .205722854897D-09  .100000000000D+01  .160700000000D+04  .000000000000D+00
     .240000000000D+01  .000000000000D+00 -.791624188423D-08  .730000000000D+02
     .108006000000D+06  .400000000000D+01
21 10 10 25  8  0  0.0 -.975932925940D-04 -.272848410532D-11  .000000000000D+00
     .220000000000D+02  .740625000000D+01  .498627912711D-08  .119722220575D+01
     .556930899620D-06  .169203740079D-01  .105854123831D-04  .515362456322D+04
     .115200000000D+06 -.197440385818D-06  .290606902658D+01  .137835741043D-06
     .932593754799D+00  .164625000000D+03 -.243791304729D+01 -.827391607039D-08
    -.700029159024D-09  .100000000000D+01  .160700000000D+04  .000000000000D+00
     .240000000000D+01  .000000000000D+00 -.121071934700D-07  .220000000000D+02
     .108006000000D+06  .400000000000D+01
22 10 10 25  8  0  0.0  .160193070769D-03 -.795807864051D-12  .000000000000D+00
     .760000000000D+02  .142875000000D+03  .494556314541D-08 -.885819610262D+00
     .751391053200D-05  .555418431759D-02  .713951885700D-05  .515372979736D+04
     .115200000000D+06 -.186264514923D-08 -.231710812207D+01  .111758708954D-06
     .933309993639D+00  .229468750000D+03 -.192965530305D+01 -.840213569696D-08
     .295012288446D-09  .100000000000D+01  .160700000000D+04  .000000000000D+00
     .485000000000D+01  .000000000000D+00 -.176951289177D-07  .760000000000D+02
     .108006000000D+06  .400000000000D+01
23 10 10 25  8  0  0.0  .347129534930D-03 -.204636307899D-11  .000000000000D+00
     .800000000000D+01  .625000000000D-01  .474984070707D-08 -.263127797778D+01
     .596046447754D-07  .698604993522D-02  .810250639915D-06  .515363006210D+04
     .115200000000D+06 -.167638063431D-06 -.128407615390D+01 -.186264514923D-07
     .966306273301D+00  .372593750000D+03  .312265455731D+01 -.840034990829D-08
     .596453416107D-10  .100000000000D+01  .160700000000D+04  .000000000000D+00
     .240000000000D+01  .000000000000D+00 -.200234353542D-07  .800000000000D+01
     .108006000000D+06  .400000000000D+01
25 10 10 25  8  0  0.0 -.476273708045D-04 -.216004991671D-11  .000000000000D+00
     .750000000000D+02 -.312500000000D-01  .450054460860D-08 -.741280246532D+00
    -.149011611938D-07  .699459924363D-03  .101346522570D-04  .515375640106D+04
     .115200000000D+06 -.130385160446D-07  .785142557962D+00  .186264514923D-08
     .961232554486D+00  .181375000000D+03  .193298081867D+01 -.790532928870D-08
     .482877256633D-09  .100000000000D+01  .160700000000D+04  .100000000000D+01
     .340000000000D+01  .000000000000D+00  .465661287308D-08  .750000000000D+02
     .108006000000D+06  .400000000000D+01
26 10 10 25  8  0  0.0 -.367369502783D-04 -.773070496507D-11  .000000000000D+00
     .180000000000D+02 -.210937500000D+02  .416624496940D-08 -.290089925110D+01
    -.126101076603D-05  .198540572310D-01  .895932316780D-06  .515364107895D+04
     .115200000000D+06  .303611159325D-06 -.122362817991D+01 -.247731804848D-06
     .989089481513D+00  .376375000000D+03  .111397879940D+01 -.788497129785D-08
     .364300888880D-10  .100000000000D+01  .160700000000D+04  .000000000000D+00
     .240000000000D+01  .000000000000D+00 -.605359673500D-08  .180000000000D+02
     .108006000000D+06  .400000000000D+01
28 10 10 25  8  0  0.0  .176439061761D-05  .159161572810D-11  .000000000000D+00
     .340000000000D+02  .253125000000D+01  .435410993758D-08 -.734481914074D+00
     .176951289177D-06  .163014365826D-01  .928342342377D-05  .515368317413D+04
     .115200000000D+06 -.128522515297D-06  .837590298187D+00  .223517417908D-06
     .971858190777D+00  .209093750000D+03 -.194272781320D+01 -.806783605776D-08
     .381087302387D-09  .100000000000D+01  .160700000000D+04  .000000000000D+00
     .240000000000D+01  .000000000000D+00 -.107102096081D-07  .340000000000D+02
     .108006000000D+06  .400000000000D+01
29 10 10 25  8  0  0.0  .158732756972D-03  .284217094304D-11  .000000000000D+00
     .350000000000D+02 -.100625000000D+02  .496234955892D-08  .131933782804D+01
    -.689178705215D-06  .255826022476D-02  .497885048389D-05  .515363361740D+04
     .115200000000D+06  .279396772385D-07  .188172299261D+01 -.502914190292D-07
     .960557869834D+00  .283093750000D+03 -.124901579045D+01 -.818605526777D-08
    -.164649715464D-09  .100000000000D+01  .160700000000D+04  .000000000000D+00
     .240000000000D+01  .000000000000D+00 -.884756445885D-08  .350000000000D+02
     .108006000000D+06  .400000000000D+01
30 10 10 25  8  0  0.0  .290366355330D-03  .341060513165D-11  .000000000000D+00
     .370000000000D+02 -.812500000000D+00  .463233581252D-08 -.673645451946D+00
    -.204890966415D-07  .131211397238D-01  .104028731585D-04  .515534813309D+04
     .115200000000D+06 -.175088644028D-06  .756575839175D+00  .800937414169D-07
     .957897790299D+00  .177625000000D+03  .155285316257D+01 -.816962601200D-08
     .522521765129D-09  .100000000000D+01  .160700000000D+04  .000000000000D+00
     .240000000000D+01  .000000000000D+00 -.791624188423D-08  .370000000000D+02
     .108006000000D+06  .400000000000D+01
31 10 10 25  8  0  0.0  .231852754951D-05  .352429196937D-11  .000000000000D+00
     .890000000000D+02 -.138562500000D+03  .403159650361D-08  .200991992292D+01
    -.701099634171D-05  .750101974700D-02  .824034214020D-05  .515379283142D+04
     .115200000000D+06  .119209289551D-06 -.240924694223D+00 -.149011611938D-07
     .978504935664D+00  .226500000000D+03 -.105148831089D+01 -.773282210308D-08
    -.293940815243D-09  .100000000000D+01  .160700000000D+04  .000000000000D+00
     .240000000000D+01  .000000000000D+00 -.130385160446D-07  .890000000000D+02
     .108006000000D+06  .400000000000D+01
32 10 10 25  8  0  0.0 -.116358976811D-03 -.875388650456D-11  .000000000000D+00
     .160000000000D+02  .146093750000D+03  .433910931275D-08  .283228756079D+01
     .735931098461D-05  .126423106994D-01  .722892582417D-05  .515360628700D+04
     .115200000000D+06  .137835741043D-06 -.225524655228D+01  .186264514923D-06
     .957433599078D+00  .232875000000D+03 -.908427201011D+00 -.793390190743D-08
     .263939565571D-09  .100000000000D+01  .160700000000D+04  .000000000000D+00
     .240000000000D+01  .000000000000D+00 -.325962901115D-08  .160000000000D+02
     .108006000000D+06  .400000000000D+01
